[{"OBJECT_NAME":"STARLINK-3729","OBJECT_ID":"2022-029AZ","EPOCH":"2026-03-09T07:50:08.782656","MEAN_MOTION":15.08849359,"ECCENTRICITY":0.00013171,"INCLINATION":53.218,"RA_OF_ASC_NODE":70.7619,"ARG_OF_PERICENTER":88.7884,"MEAN_ANOMALY":271.3259,"EPHEMERIS_TYPE":0,"CLASSIFICATION_TYPE":"U","NORAD_CAT_ID":52135,"ELEMENT_SET_NO":999,"REV_AT_EPOCH":22088,"BSTAR":8.5727187e-5,"MEAN_MOTION_DOT":1.077e-5,"MEAN_MOTION_DDOT":0},{"OBJECT_NAME":"COSMOS 2251 DEB","OBJECT_ID":"1993-036AXM","EPOCH":"2026-03-07T07:05:54.204864","MEAN_MOTION":15.02741186,"ECCENTRICITY":0.0082386,"INCLINATION":74.0334,"RA_OF_ASC_NODE":21.5856,"ARG_OF_PERICENTER":78.8649,"MEAN_ANOMALY":282.1788,"EPHEMERIS_TYPE":0,"CLASSIFICATION_TYPE":"U","NORAD_CAT_ID":36050,"ELEMENT_SET_NO":999,"REV_AT_EPOCH":68304,"BSTAR":0.00097016,"MEAN_MOTION_DOT":0.00013949,"MEAN_MOTION_DDOT":0}]
